TIANMU-1 08             
1 57400U 23101B   26066.00237819  .00000346  00000+0  14775-4 0  9993
2 57400  97.2717 118.7901 0006380 134.2174 225.9592 15.29204229146020
STARLINK-31932          
1 59929U 24106H   26068.33334491  .00005463  00000+0  20791-3 0  9998
2 59929  43.0026 331.3327 0001588 281.5974  95.7698 15.27579229  5773
